ID,turno,Nombre,LatitudInicial,LongitudInicial,LatitudFinal,LongitudFinal,frecuencia
1,M,SANPEDRODECHOQUE-NARANJOS,-11.865682,-77.053401,-11.869634,-77.059911,DIARIA
2,M,GLORIABAMBA,-11.843413,-77.101685,-11.846168,-77.106445,DIARIA
3,M,LASVEGAS,-11.864887,-77.074087,-11.864401,-77.074354,DIARIA
4,M,PANCHAPAULADERECHO,-11.856485,-77.067177,-11.856525,-77.065079,DIARIA
5,M,SANTAPAULA,-11.853834,-77.067023,-11.850263,-77.058083,DIARIA
6,M,LOMASZAPALLAL,-11.827395,-77.100564,-11.818736,-77.09869,DIARIA
7,M,CALICHE,-11.847793,-77.096529,-11.850823,-77.105521,DIARIA
8,M,ANIMASDELSUR,-11.9088,-77.071027,-11.905449,-77.070993,DIARIA
9,M,A3,-11.913825,-77.086113,-11.912062,-77.086496,DIARIA
10,M,EUCALIPTOS,-11.912816,-77.07406,-11.908108,-77.083869,DIARIA
11,M,GALLINAZOZCASAHUERTA,-11.89272,-77.067824,-11.878041,-77.06058,DIARIA
12,M,SANTABARBARA,-11.890006,-77.06854,-11.886393,-77.075077,DIARIA
13,M,CAMINOREAL,-11.862633,-77.080763,-11.860177,-77.093934,DIARIA
14,M,ORQUIDEAS-CASUARINAS,-11.864383,-77.074196,-11.842732,-77.086931,DIARIA
15,M,LOMASLADODERECHO,-11.829034,-77.101385,-11.815997,-77.099084,DIARIA
16,M,PALMITOS--PANCHAPAULAIZQUIERDA,-11.855283,-77.065526,-11.852729,-77.05927,DIARIA
17,M,CHAVINDEHUANTAR,-11.833958,-77.090803,-11.829985,-77.091122,DIARIA
18,M,PRIMERODEMAYO,-11.859587,-77.09261,-11.861934,-77.094925,DIARIA
19,M,ANIMAS,-11.908239,-77.072579,-11.90546,-77.070983,DIARIA
20,M,LADERASIIEXPLANADA,-11.924502,-77.086303,-11.919986,-77.088934,INTERDIARIA(MJ-S)
21,M,LADERASIIEXPLANADAU3,-11.92355,-77.085901,-11.923417,-77.089881,INTERDIARIA(MJ-S)
22,M,VIRGENDELFATIMA,-11.842888,-77.101275,-11.835403,-77.109079,INTERDIARIA(LMi-V)
23,M,CERROGORDO,-11.850201,-77.093575,-11.851419,-77.092006,INTERDIARIA(LMi-V)
24,M,ELPORVENIR,-11.84901,-77.090315,-11.854606,-77.084773,INTERDIARIA(LMi-V)
25,M,PANAMERICANORTE,-11.870153,-77.070883,-11.860471,-77.079865,DIARIA
26,M,AVENIDASDELSUR,-11.87649,-77.069217,-11.865426,-77.07393,DIARIA
27,M,COLONIAELDORADO,-11.842778,-77.101152,-11.817901,-77.098601,INTERDIARIA(MJ-S)
28,M,ARENITAS,-11.836012,-77.109654,-11.829006,-77.114547,INTERDIARIA(MJ-S)
29,M,COMIT6,7,8MONTEDESENAIN,-11.828844,-77.114575,-11.82664,-77.119221,INTERDIARIA(MJ-S)
30,M,LADERASPARTESALTASMZZ,-11.919535,-77.089916,-11.917794,-77.095025,INTERDIARIA(LMi-V)
31,M,LADERASPARTESALTASMZS,-11.919967,-77.088759,-11.921028,-77.095681,INTERDIARIA(LMi-V)
32,T,COPACABANALOSSAUCES,-11.855466,-77.085657,-11.850488,-77.081187,DIARIA
33,T,PSJESANMIGUEL,-11.857661,-77.082985,-11.849783,-77.072435,DIARIA
34,T,LAGRAMAPARTESALTAS,-11.853703,-77.089661,-11.858564,-77.100316,DIARIA
35,T,LOMASPRIMERODEMAYOYBELAUNDETERRY,-11.858796,-77.100433,-11.860644,-77.104207,DIARIA
36,T,OROPEZA_PARTESALTAS,-11.831112,-77.113764,-11.820546,-77.109271,DIARIA
37,T,CHAVARRIA,-11.873784,-77.074336,-11.872986,-77.069529,DIARIA
38,T,SHANGRILA,-11.916262,-77.076041,-11.908365,-77.083593,DIARIA
39,T,CAPITANA,-11.901997,-77.070017,-11.901622,-77.072467,DIARIA
40,T,MARIAJESUS,-11.931775,-77.089385,-11.931145,-77.09153,DIARIA
41,T,ALAMEDADELNORTE,-11.843215,-77.088148,-11.840506,-77.094642,DIARIA
42,T,ZAPALLAL,-11.84423,-77.097999,-11.832636,-77.112619,DIARIA
43,T,PSJEELPARRAL,-11.868837,-77.076453,-11.870622,-77.080981,DIARIA
44,T,PSJEAVITUNI,-11.859406,-77.083873,-11.866849,-77.088238,DIARIA
45,T,ALF.UGARTEPARTESALTAS,-11.853709,-77.08966,-11.856776,-77.099872,DIARIA
46,T,TIWINZAPARTESALTAS,-11.84857,-77.110822,-11.84774,-77.116054,DIARIA
47,T,5DEOCTUBRE,-11.829117,-77.101429,-11.81785,-77.098549,DIARIA
48,T,ELPARASO,-11.829483,-77.118153,-11.825918,-77.116994,DIARIA
49,T,URB.ELGRAMADAL,-11.868016,-77.074683,-11.863866,-77.078669,DIARIA
50,T,URB.LOSPORTALES,-11.880963,-77.068752,-11.873514,-77.05988,DIARIA
51,T,TIWINZA-LAALBORADA,-11.843458,-77.101687,-11.849727,-77.115256,DIARIA
52,T,ELDORADOLASTORRES,-11.842823,-77.101244,-11.827361,-77.093146,DIARIA
53,T,VALLEHERMOSO,-11.833522,-77.113398,-11.829124,-77.110359,DIARIA
54,T,OROPEZA,-11.829273,-77.113028,-11.821933,-77.1102,DIARIA
55,T,PRIMAVERAALFONSOUGARTE,-11.868034,-77.074758,-11.869518,-77.079016,DIARIA
56,T,LASFRESASYLAMERCED,-11.886316,-77.068432,-11.877974,-77.061523,DIARIA
57,T,ROSALUZAYB,-11.877791,-77.064573,-11.882453,-77.074541,DIARIA
58,N,PCANTIGUAPANAMERICANA,-11.882541,-77.07451,-11.890232,-77.068743,DIARIA
59,N,PCANTIGUAENSENADA,-11.922962,-77.080146,-11.929525,-77.07886,DIARIA
60,N,PCCIRCUNVALACIN,-11.867413,-77.080978,-11.869832,-77.077531,DIARIA
61,N,NUEVAESPERANZA,-11.839134,-77.085043,-11.835098,-77.084208,INTERDIARIA(LMi-V)
62,N,BELLAVISTA,-11.862161,-77.090474,-11.864451,-77.086439,INTERDIARIA(LMi-V)
63,N,CERROVERDE,-11.81783,-77.098557,-11.816675,-77.094398,INTERDIARIA(LMi-V)
64,N,ELICEOCOLLAZO,-11.829845,-77.111404,-11.820876,-77.108241,INTERDIARIA(LMi-V)
65,N,CERCADOA,-11.833063,-77.113094,-11.829953,-77.105847,DIARIA
66,N,LAMPADEORO,-11.833727,-77.113499,-11.838497,-77.112058,DIARIA
67,N,BELLAAURORA,-11.831305,-77.111463,-11.832144,-77.108535,DIARIA
68,N,SANTAROSABAJO(AMBOSLADOSA),-11.89544,-77.068819,-11.890239,-77.068465,DIARIA
69,N,SANTAROSABAJO(AMBOSLADOSB),-11.890187,-77.068093,-11.895915,-77.067528,DIARIA
70,N,LADERASDECHILLNPARTEBAJA,-11.920417,-77.084508,-11.927958,-77.087055,DIARIA
71,N,SANTAROSAPARTEALTA,-11.875144,-77.074489,-11.874319,-77.089181,DIARIA
72,N,ENSENADAIZQUIERDA,-11.929558,-77.097852,-11.936985,-77.093342,DIARIA
73,N,5ETAPASDECHILLN,-11.925861,-77.079256,-11.923055,-77.078387,DIARIA
74,N,ENSENADAPARTEALTA(LADODERECHOYIZQUIERDO),-11.928204,-77.080451,-11.925474,-77.081443,DIARIA
75,N,PORTALES_FOVIMAR,-11.938241,-77.08661,-11.932347,-77.086006,DIARIA
76,N,ENSENADADERECHA,-11.936887,-77.093327,-11.929552,-77.09783,DIARIA
77,N,LADERAS_VALLECHILLON,-11.91396,-77.074181,-11.916262,-77.082366,DIARIA
78,N,HIJOSDELUYA,-11.844168,-77.09794,-11.835384,-77.109065,DIARIA
79,N,CERCADOB,-11.935925,-77.083327,-11.937448,-77.097464,DIARIA
80,N,AVENIDASPRINCIPALES,-11.935659,-77.083107,-11.917626,-77.073785,DIARIA
81,N,PANAMERICANANORTE,-11.913262,-77.073611,-11.880964,-77.068782,DIARIA
